DMSP 5D-3 F16 (USA 172) 
1 28054U 03048A   26082.92065414  .00000125  00000+0  88911-4 0  9991
2 28054  98.9976 106.1546 0007632  36.6673 353.3775 14.14467391157434
UFO 11 (USA 174)        
1 28117U 03057A   26082.89628097 -.00000106  00000+0  00000+0 0  9997
2 28117   8.8778  34.2360 0003244 312.1031 233.1226  1.00272290 81596
DMSP 5D-3 F18 (USA 210) 
1 35951U 09057A   26082.92686450  .00000246  00000+0  15031-3 0  9996
2 35951  98.8984  63.9105 0011854 129.3914 230.8310 14.14844660847535
TANDEM-X                
1 36605U 10030A   26082.56295569  .00001300  00000+0  65080-4 0  9995
2 36605  97.4472  91.4886 0001880  95.4532 264.6917 15.19155413873644
O/OREOS (USA 219)       
1 37224U 10062C   26082.93333143  .00002822  00000+0  27423-3 0  9998
2 37224  71.9693 273.3972 0016402 232.5648 127.4031 14.93351824103913
DTUSAT-2                
1 40030U 14033W   26082.93832380  .00008423  00000+0  47030-3 0  9995
2 40030  98.0866  75.3412 0008650 153.9454 206.2213 15.13780924639787
GAOFEN-2                
1 40118U 14049A   26082.97078281  .00000295  00000+0  45160-4 0  9997
2 40118  98.0189 147.2324 0008130 140.7409 219.4394 14.80791256626628
GAOFEN-8                
1 40701U 15030A   26082.95283065  .00023782  00000+0  54055-3 0  9990
2 40701  97.6941 271.3873 0010140 138.0452 222.1574 15.42958648598298
GAOFEN-4                
1 41194U 15083A   26082.43164860 -.00000337  00000+0  00000+0 0  9998
2 41194   0.3588  82.9448 0005814  89.3201 269.7225  1.00268371 37664
GAOFEN-3                
1 41727U 16049A   26082.95733670 -.00000061  00000+0 -52673-5 0  9995
2 41727  98.4051  92.0187 0001696  79.4554 280.6827 14.42219275506363
GAOFEN-1 02             
1 43259U 18031A   26082.97500758 -.00000550  00000+0 -71588-4 0  9999
2 43259  98.0609 145.7047 0001644 286.1799  73.9230 14.76465516430121
GAOFEN-6                
1 43484U 18048A   26082.95877475  .00001201  00000+0  17874-3 0  9997
2 43484  97.7838 148.7333 0013691  92.9574 267.3204 14.76621861420813
GAOFEN-10R              
1 44622U 19066A   26082.93451727  .00001195  00000+0  15433-3 0  9990
2 44622  98.0417  35.9458 0006961  60.6716 299.5191 14.82842154349743
GAOFEN-7                
1 44703U 19072A   26082.96099948  .00004999  00000+0  22482-3 0  9990
2 44703  97.2510 147.5953 0014323 340.0442  20.0232 15.21461215354681
GAOFEN-11 02            
1 46396U 20064A   26082.94263118  .00007584  00000+0  32200-3 0  9995
2 46396  97.5004 208.9239 0018750 243.6211 116.3101 15.23212665308555
GAOFEN-3 02             
1 49495U 21109A   26082.92202381 -.00000020  00000+0  70576-5 0  9991
2 49495  98.4129  92.2186 0001499 229.5097 130.5962 14.42209942228028
GAOFEN-3 03             
1 52200U 22035A   26082.96413433 -.00000076  00000+0 -99834-5 0  9994
2 52200  98.4104  92.7690 0001666  86.1274 274.0106 14.42209809208567
MUSAT-2                 
1 59099U 24043B   26082.92677591  .00009011  00000+0  59893-3 0  9996
2 59099  97.8464 219.7209 0006450 259.9759 100.0740 15.07409690112246
JINJUSAT-1B             
1 63210U 25052A   26082.98223304  .00019090  00000+0  64421-3 0  9993
2 63210  97.4093 339.7522 0004839  50.3130 309.8537 15.30728901 57051
