[ {"OBJECT_NAME": "JINJUSAT-1B", "NORAD_CAT_ID": 63210, "MEAN_MOTION": 15.30728901, "ECCENTRICITY": 0.0004839, "INCLINATION": 97.4093, "RA_OF_ASC_NODE": 339.7522, "ARG_OF_PERICENTER": 50.313, "MEAN_ANOMALY": 309.8537, "BSTAR": 0.00064421, "EPOCH": "2026-03-23T23:34:24"}, {"OBJECT_NAME": "DMSP 5D-3 F18 (USA 210)", "NORAD_CAT_ID": 35951, "MEAN_MOTION": 14.1484466, "ECCENTRICITY": 0.0011854, "INCLINATION": 98.8984, "RA_OF_ASC_NODE": 63.9105, "ARG_OF_PERICENTER": 129.3914, "MEAN_ANOMALY": 230.831, "BSTAR": 0.00015031, "EPOCH": "2026-03-23T22:14:41"}, {"OBJECT_NAME": "DTUSAT-2", "NORAD_CAT_ID": 40030, "MEAN_MOTION": 15.13780924, "ECCENTRICITY": 0.000865, "INCLINATION": 98.0866, "RA_OF_ASC_NODE": 75.3412, "ARG_OF_PERICENTER": 153.9454, "MEAN_ANOMALY": 206.2213, "BSTAR": 0.0004703, "EPOCH": "2026-03-23T22:31:11"}, {"OBJECT_NAME": "MUSAT-2", "NORAD_CAT_ID": 59099, "MEAN_MOTION": 15.0740969, "ECCENTRICITY": 0.000645, "INCLINATION": 97.8464, "RA_OF_ASC_NODE": 219.7209, "ARG_OF_PERICENTER": 259.9759, "MEAN_ANOMALY": 100.074, "BSTAR": 0.00059893, "EPOCH": "2026-03-23T22:14:33"}, {"OBJECT_NAME": "O/OREOS (USA 219)", "NORAD_CAT_ID": 37224, "MEAN_MOTION": 14.93351824, "ECCENTRICITY": 0.0016402, "INCLINATION": 71.9693, "RA_OF_ASC_NODE": 273.3972, "ARG_OF_PERICENTER": 232.5648, "MEAN_ANOMALY": 127.4031, "BSTAR": 0.00027423, "EPOCH": "2026-03-23T22:23:59"}, {"OBJECT_NAME": "DMSP 5D-3 F16 (USA 172)", "NORAD_CAT_ID": 28054, "MEAN_MOTION": 14.14467391, "ECCENTRICITY": 0.0007632, "INCLINATION": 98.9976, "RA_OF_ASC_NODE": 106.1546, "ARG_OF_PERICENTER": 36.6673, "MEAN_ANOMALY": 353.3775, "BSTAR": 8.8911e-05, "EPOCH": "2026-03-23T22:05:44"}, {"OBJECT_NAME": "UFO 11 (USA 174)", "NORAD_CAT_ID": 28117, "MEAN_MOTION": 1.0027229, "ECCENTRICITY": 0.0003244, "INCLINATION": 8.8778, "RA_OF_ASC_NODE": 34.236, "ARG_OF_PERICENTER": 312.1031, "MEAN_ANOMALY": 233.1226, "BSTAR": 0.0, "EPOCH": "2026-03-23T21:30:38"}, {"OBJECT_NAME": "TANDEM-X", "NORAD_CAT_ID": 36605, "MEAN_MOTION": 15.19155413, "ECCENTRICITY": 0.000188, "INCLINATION": 97.4472, "RA_OF_ASC_NODE": 91.4886, "ARG_OF_PERICENTER": 95.4532, "MEAN_ANOMALY": 264.6917, "BSTAR": 6.508000000000001e-05, "EPOCH": "2026-03-23T13:30:39"}, {"OBJECT_NAME": "GAOFEN-3", "NORAD_CAT_ID": 41727, "MEAN_MOTION": 14.42219275, "ECCENTRICITY": 0.0001696, "INCLINATION": 98.4051, "RA_OF_ASC_NODE": 92.0187, "ARG_OF_PERICENTER": 79.4554, "MEAN_ANOMALY": 280.6827, "BSTAR": -5.2673e-06, "EPOCH": "2026-03-23T22:58:33"}, {"OBJECT_NAME": "GAOFEN-3 03", "NORAD_CAT_ID": 52200, "MEAN_MOTION": 14.42209809, "ECCENTRICITY": 0.0001666, "INCLINATION": 98.4104, "RA_OF_ASC_NODE": 92.769, "ARG_OF_PERICENTER": 86.1274, "MEAN_ANOMALY": 274.0106, "BSTAR": -9.983400000000002e-06, "EPOCH": "2026-03-23T23:08:21"}, {"OBJECT_NAME": "GAOFEN-4", "NORAD_CAT_ID": 41194, "MEAN_MOTION": 1.00268371, "ECCENTRICITY": 0.0005814, "INCLINATION": 0.3588, "RA_OF_ASC_NODE": 82.9448, "ARG_OF_PERICENTER": 89.3201, "MEAN_ANOMALY": 269.7225, "BSTAR": 0.0, "EPOCH": "2026-03-23T10:21:34"}, {"OBJECT_NAME": "GAOFEN-1 02", "NORAD_CAT_ID": 43259, "MEAN_MOTION": 14.76465516, "ECCENTRICITY": 0.0001644, "INCLINATION": 98.0609, "RA_OF_ASC_NODE": 145.7047, "ARG_OF_PERICENTER": 286.1799, "MEAN_ANOMALY": 73.923, "BSTAR": -7.158799999999999e-05, "EPOCH": "2026-03-23T23:24:00"}, {"OBJECT_NAME": "GAOFEN-11 02", "NORAD_CAT_ID": 46396, "MEAN_MOTION": 15.23212665, "ECCENTRICITY": 0.001875, "INCLINATION": 97.5004, "RA_OF_ASC_NODE": 208.9239, "ARG_OF_PERICENTER": 243.6211, "MEAN_ANOMALY": 116.3101, "BSTAR": 0.000322, "EPOCH": "2026-03-23T22:37:23"}, {"OBJECT_NAME": "GAOFEN-7", "NORAD_CAT_ID": 44703, "MEAN_MOTION": 15.21461215, "ECCENTRICITY": 0.0014323, "INCLINATION": 97.251, "RA_OF_ASC_NODE": 147.5953, "ARG_OF_PERICENTER": 340.0442, "MEAN_ANOMALY": 20.0232, "BSTAR": 0.00022482, "EPOCH": "2026-03-23T23:03:50"}, {"OBJECT_NAME": "GAOFEN-2", "NORAD_CAT_ID": 40118, "MEAN_MOTION": 14.80791256, "ECCENTRICITY": 0.000813, "INCLINATION": 98.0189, "RA_OF_ASC_NODE": 147.2324, "ARG_OF_PERICENTER": 140.7409, "MEAN_ANOMALY": 219.4394, "BSTAR": 4.516e-05, "EPOCH": "2026-03-23T23:17:55"}, {"OBJECT_NAME": "GAOFEN-8", "NORAD_CAT_ID": 40701, "MEAN_MOTION": 15.42958648, "ECCENTRICITY": 0.001014, "INCLINATION": 97.6941, "RA_OF_ASC_NODE": 271.3873, "ARG_OF_PERICENTER": 138.0452, "MEAN_ANOMALY": 222.1574, "BSTAR": 0.00054055, "EPOCH": "2026-03-23T22:52:04"}, {"OBJECT_NAME": "GAOFEN-6", "NORAD_CAT_ID": 43484, "MEAN_MOTION": 14.76621861, "ECCENTRICITY": 0.0013691, "INCLINATION": 97.7838, "RA_OF_ASC_NODE": 148.7333, "ARG_OF_PERICENTER": 92.9574, "MEAN_ANOMALY": 267.3204, "BSTAR": 0.00017874, "EPOCH": "2026-03-23T23:00:38"}, {"OBJECT_NAME": "GAOFEN-3 02", "NORAD_CAT_ID": 49495, "MEAN_MOTION": 14.42209942, "ECCENTRICITY": 0.0001499, "INCLINATION": 98.4129, "RA_OF_ASC_NODE": 92.2186, "ARG_OF_PERICENTER": 229.5097, "MEAN_ANOMALY": 130.5962, "BSTAR": 7.057600000000001e-06, "EPOCH": "2026-03-23T22:07:42"}, {"OBJECT_NAME": "GAOFEN-10R", "NORAD_CAT_ID": 44622, "MEAN_MOTION": 14.82842154, "ECCENTRICITY": 0.0006961, "INCLINATION": 98.0417, "RA_OF_ASC_NODE": 35.9458, "ARG_OF_PERICENTER": 60.6716, "MEAN_ANOMALY": 299.5191, "BSTAR": 0.00015433, "EPOCH": "2026-03-23T22:25:42"}]